UNKNOWN                 
1 87163U          25317.59920850  .00006379  00000+0  19434-2 0  9998
2 87163  65.6015 308.1594 0642067  77.7290 289.4862 13.63674418573543
UNKNOWN                 
1 87164U          25315.55814493  .00008016  00000+0  16555-2 0  9999
2 87164  65.2039  58.2351 0096818  69.6885 291.4586 14.57967224631227
UNKNOWN                 
1 87204U          25317.37833637  .00006595  00000+0  25846-2 0  9990
2 87204  98.5376 178.7894 0046918  49.9897 310.5389 14.29126143621246
UNKNOWN                 
1 87211U          25315.76916074  .00007011  00000+0  19417-2 0  9997
2 87211  99.0868 313.3752 0052533 251.4575 290.9079 14.46143017703290
UNKNOWN                 
1 87214U          25314.94375227  .00002085  00000+0  18811-2 0  9991
2 87214 100.3302 310.4932 0075267 334.3771  25.3658 13.83996397595848
UNKNOWN                 
1 87237U          25317.12621815  .00000749  00000+0  59829-3 0  9996
2 87237  99.2620  12.6696 0103134   4.7377  23.6954 13.91715703607646
UNKNOWN                 
1 87239U          25316.68797121  .00031147  00000+0  78099-2 0  9997
2 87239  82.8727 108.3721 0019834 139.2818 220.9867 14.51078278623518
UNKNOWN                 
1 87245U          25317.46468936  .00020904  00000+0  42379-2 0  9991
2 87245  65.6386 126.0909 0435233 135.8307 260.7947 14.15280724610068
UNKNOWN                 
1 87271U          25316.71992999  .00012637  00000+0  23603-2 0  9991
2 87271  65.7563 316.9531 0420424  89.5240 275.3994 14.21085393608101
UNKNOWN                 
1 87280U          25316.71603442  .00000746  00000+0  12640-2 0  9990
2 87280  64.6158 309.6296 0131508 266.4059  92.1932 13.48516868529802
UNKNOWN                 
1 87293U          25317.46436191  .00026952  00000+0  53777-2 0  9995
2 87293  65.8985 223.0165 0425202  15.5651 345.8046 14.17502229609849
UNKNOWN                 
1 87300U          25317.19250513  .00003930  00000+0  27299-2 0  9997
2 87300 100.0851 296.6961 0029982   9.5502 350.6222 13.99288120608989
