CCSDS_OMM_VERS = 2.0
CREATION_DATE  = 
ORIGINATOR     = 

OBJECT_NAME    = UNKNOWN
OBJECT_ID      = 
CENTER_NAME    = EARTH
REF_FRAME      = TEME
TIME_SYSTEM    = UTC
MEAN_ELEMENT_THEORY = SGP/SGP4

EPOCH          = 2025-11-13T14:22:51.614400
MEAN_MOTION    = 13.63674418
ECCENTRICITY   = .0642067
INCLINATION    = 65.6015
RA_OF_ASC_NODE = 308.1594
ARG_OF_PERICENTER = 77.7290
MEAN_ANOMALY   = 289.4862

EPHEMERIS_TYPE = 0
CLASSIFICATION_TYPE = U
NORAD_CAT_ID   = 87163
ELEMENT_SET_NO = 999
REV_AT_EPOCH   = 57354
BSTAR          = .19434E-2
MEAN_MOTION_DOT = .6379E-4
MEAN_MOTION_DDOT = 0

CCSDS_OMM_VERS = 2.0
CREATION_DATE  = 
ORIGINATOR     = 

OBJECT_NAME    = UNKNOWN
OBJECT_ID      = 
CENTER_NAME    = EARTH
REF_FRAME      = TEME
TIME_SYSTEM    = UTC
MEAN_ELEMENT_THEORY = SGP/SGP4

EPOCH          = 2025-11-11T13:23:43.721952
MEAN_MOTION    = 14.57967224
ECCENTRICITY   = .0096818
INCLINATION    = 65.2039
RA_OF_ASC_NODE = 58.2351
ARG_OF_PERICENTER = 69.6885
MEAN_ANOMALY   = 291.4586

EPHEMERIS_TYPE = 0
CLASSIFICATION_TYPE = U
NORAD_CAT_ID   = 87164
ELEMENT_SET_NO = 999
REV_AT_EPOCH   = 63122
BSTAR          = .16555E-2
MEAN_MOTION_DOT = .8016E-4
MEAN_MOTION_DDOT = 0

CCSDS_OMM_VERS = 2.0
CREATION_DATE  = 
ORIGINATOR     = 

OBJECT_NAME    = UNKNOWN
OBJECT_ID      = 
CENTER_NAME    = EARTH
REF_FRAME      = TEME
TIME_SYSTEM    = UTC
MEAN_ELEMENT_THEORY = SGP/SGP4

EPOCH          = 2025-11-13T09:04:48.262368
MEAN_MOTION    = 14.29126143
ECCENTRICITY   = .0046918
INCLINATION    = 98.5376
RA_OF_ASC_NODE = 178.7894
ARG_OF_PERICENTER = 49.9897
MEAN_ANOMALY   = 310.5389

EPHEMERIS_TYPE = 0
CLASSIFICATION_TYPE = U
NORAD_CAT_ID   = 87204
ELEMENT_SET_NO = 999
REV_AT_EPOCH   = 62124
BSTAR          = .25846E-2
MEAN_MOTION_DOT = .6595E-4
MEAN_MOTION_DDOT = 0

CCSDS_OMM_VERS = 2.0
CREATION_DATE  = 
ORIGINATOR     = 

OBJECT_NAME    = UNKNOWN
OBJECT_ID      = 
CENTER_NAME    = EARTH
REF_FRAME      = TEME
TIME_SYSTEM    = UTC
MEAN_ELEMENT_THEORY = SGP/SGP4

EPOCH          = 2025-11-11T18:27:35.487936
MEAN_MOTION    = 14.46143017
ECCENTRICITY   = .0052533
INCLINATION    = 99.0868
RA_OF_ASC_NODE = 313.3752
ARG_OF_PERICENTER = 251.4575
MEAN_ANOMALY   = 290.9079

EPHEMERIS_TYPE = 0
CLASSIFICATION_TYPE = U
NORAD_CAT_ID   = 87211
ELEMENT_SET_NO = 999
REV_AT_EPOCH   = 70329
BSTAR          = .19417E-2
MEAN_MOTION_DOT = .7011E-4
MEAN_MOTION_DDOT = 0

CCSDS_OMM_VERS = 2.0
CREATION_DATE  = 
ORIGINATOR     = 

OBJECT_NAME    = UNKNOWN
OBJECT_ID      = 
CENTER_NAME    = EARTH
REF_FRAME      = TEME
TIME_SYSTEM    = UTC
MEAN_ELEMENT_THEORY = SGP/SGP4

EPOCH          = 2025-11-10T22:39:00.196128
MEAN_MOTION    = 13.83996397
ECCENTRICITY   = .0075267
INCLINATION    = 100.3302
RA_OF_ASC_NODE = 310.4932
ARG_OF_PERICENTER = 334.3771
MEAN_ANOMALY   = 25.3658

EPHEMERIS_TYPE = 0
CLASSIFICATION_TYPE = U
NORAD_CAT_ID   = 87214
ELEMENT_SET_NO = 999
REV_AT_EPOCH   = 59584
BSTAR          = .18811E-2
MEAN_MOTION_DOT = .2085E-4
MEAN_MOTION_DDOT = 0

CCSDS_OMM_VERS = 2.0
CREATION_DATE  = 
ORIGINATOR     = 

OBJECT_NAME    = UNKNOWN
OBJECT_ID      = 
CENTER_NAME    = EARTH
REF_FRAME      = TEME
TIME_SYSTEM    = UTC
MEAN_ELEMENT_THEORY = SGP/SGP4

EPOCH          = 2025-11-13T03:01:45.248160
MEAN_MOTION    = 13.91715703
ECCENTRICITY   = .0103134
INCLINATION    = 99.2620
RA_OF_ASC_NODE = 12.6696
ARG_OF_PERICENTER = 4.7377
MEAN_ANOMALY   = 23.6954

EPHEMERIS_TYPE = 0
CLASSIFICATION_TYPE = U
NORAD_CAT_ID   = 87237
ELEMENT_SET_NO = 999
REV_AT_EPOCH   = 60764
BSTAR          = .59829E-3
MEAN_MOTION_DOT = .749E-5
MEAN_MOTION_DDOT = 0

CCSDS_OMM_VERS = 2.0
CREATION_DATE  = 
ORIGINATOR     = 

OBJECT_NAME    = UNKNOWN
OBJECT_ID      = 
CENTER_NAME    = EARTH
REF_FRAME      = TEME
TIME_SYSTEM    = UTC
MEAN_ELEMENT_THEORY = SGP/SGP4

EPOCH          = 2025-11-12T16:30:40.712544
MEAN_MOTION    = 14.51078278
ECCENTRICITY   = .0019834
INCLINATION    = 82.8727
RA_OF_ASC_NODE = 108.3721
ARG_OF_PERICENTER = 139.2818
MEAN_ANOMALY   = 220.9867

EPHEMERIS_TYPE = 0
CLASSIFICATION_TYPE = U
NORAD_CAT_ID   = 87239
ELEMENT_SET_NO = 999
REV_AT_EPOCH   = 62351
BSTAR          = .78099E-2
MEAN_MOTION_DOT = .31147E-3
MEAN_MOTION_DDOT = 0

CCSDS_OMM_VERS = 2.0
CREATION_DATE  = 
ORIGINATOR     = 

OBJECT_NAME    = UNKNOWN
OBJECT_ID      = 
CENTER_NAME    = EARTH
REF_FRAME      = TEME
TIME_SYSTEM    = UTC
MEAN_ELEMENT_THEORY = SGP/SGP4

EPOCH          = 2025-11-13T11:09:09.160704
MEAN_MOTION    = 14.15280724
ECCENTRICITY   = .0435233
INCLINATION    = 65.6386
RA_OF_ASC_NODE = 126.0909
ARG_OF_PERICENTER = 135.8307
MEAN_ANOMALY   = 260.7947

EPHEMERIS_TYPE = 0
CLASSIFICATION_TYPE = U
NORAD_CAT_ID   = 87245
ELEMENT_SET_NO = 999
REV_AT_EPOCH   = 61006
BSTAR          = .42379E-2
MEAN_MOTION_DOT = .20904E-3
MEAN_MOTION_DDOT = 0

CCSDS_OMM_VERS = 2.0
CREATION_DATE  = 
ORIGINATOR     = 

OBJECT_NAME    = UNKNOWN
OBJECT_ID      = 
CENTER_NAME    = EARTH
REF_FRAME      = TEME
TIME_SYSTEM    = UTC
MEAN_ELEMENT_THEORY = SGP/SGP4

EPOCH          = 2025-11-12T17:16:41.951136
MEAN_MOTION    = 14.21085393
ECCENTRICITY   = .0420424
INCLINATION    = 65.7563
RA_OF_ASC_NODE = 316.9531
ARG_OF_PERICENTER = 89.5240
MEAN_ANOMALY   = 275.3994

EPHEMERIS_TYPE = 0
CLASSIFICATION_TYPE = U
NORAD_CAT_ID   = 87271
ELEMENT_SET_NO = 999
REV_AT_EPOCH   = 60810
BSTAR          = .23603E-2
MEAN_MOTION_DOT = .12637E-3
MEAN_MOTION_DDOT = 0

CCSDS_OMM_VERS = 2.0
CREATION_DATE  = 
ORIGINATOR     = 

OBJECT_NAME    = UNKNOWN
OBJECT_ID      = 
CENTER_NAME    = EARTH
REF_FRAME      = TEME
TIME_SYSTEM    = UTC
MEAN_ELEMENT_THEORY = SGP/SGP4

EPOCH          = 2025-11-12T17:11:05.373888
MEAN_MOTION    = 13.48516868
ECCENTRICITY   = .0131508
INCLINATION    = 64.6158
RA_OF_ASC_NODE = 309.6296
ARG_OF_PERICENTER = 266.4059
MEAN_ANOMALY   = 92.1932

EPHEMERIS_TYPE = 0
CLASSIFICATION_TYPE = U
NORAD_CAT_ID   = 87280
ELEMENT_SET_NO = 999
REV_AT_EPOCH   = 52980
BSTAR          = .1264E-2
MEAN_MOTION_DOT = .746E-5
MEAN_MOTION_DDOT = 0

CCSDS_OMM_VERS = 2.0
CREATION_DATE  = 
ORIGINATOR     = 

OBJECT_NAME    = UNKNOWN
OBJECT_ID      = 
CENTER_NAME    = EARTH
REF_FRAME      = TEME
TIME_SYSTEM    = UTC
MEAN_ELEMENT_THEORY = SGP/SGP4

EPOCH          = 2025-11-13T11:08:40.869024
MEAN_MOTION    = 14.17502229
ECCENTRICITY   = .0425202
INCLINATION    = 65.8985
RA_OF_ASC_NODE = 223.0165
ARG_OF_PERICENTER = 15.5651
MEAN_ANOMALY   = 345.8046

EPHEMERIS_TYPE = 0
CLASSIFICATION_TYPE = U
NORAD_CAT_ID   = 87293
ELEMENT_SET_NO = 999
REV_AT_EPOCH   = 60984
BSTAR          = .53777E-2
MEAN_MOTION_DOT = .26952E-3
MEAN_MOTION_DDOT = 0

CCSDS_OMM_VERS = 2.0
CREATION_DATE  = 
ORIGINATOR     = 

OBJECT_NAME    = UNKNOWN
OBJECT_ID      = 
CENTER_NAME    = EARTH
REF_FRAME      = TEME
TIME_SYSTEM    = UTC
MEAN_ELEMENT_THEORY = SGP/SGP4

EPOCH          = 2025-11-13T04:37:12.443232
MEAN_MOTION    = 13.99288120
ECCENTRICITY   = .0029982
INCLINATION    = 100.0851
RA_OF_ASC_NODE = 296.6961
ARG_OF_PERICENTER = 9.5502
MEAN_ANOMALY   = 350.6222

EPHEMERIS_TYPE = 0
CLASSIFICATION_TYPE = U
NORAD_CAT_ID   = 87300
ELEMENT_SET_NO = 999
REV_AT_EPOCH   = 60898
BSTAR          = .27299E-2
MEAN_MOTION_DOT = .393E-4
MEAN_MOTION_DDOT = 0

